STARLINK-37283          
1 68568U 26070AC  26117.26401414 -.00158747  00000+0 -81242-3 0  9990
2 68568  53.1573 141.1408 0000392  55.0104 305.0955 15.80958644  3939
STARLINK-37256          
1 68569U 26070AD  26117.58161813  .00242597  00000+0  11933-2 0  9996
2 68569  53.1575 139.5646 0001025 111.0591 249.0542 15.80965652  3985
STARLINK-37228          
1 68570U 26070AE  26116.37894819  .00204395  00000+0  10113-2 0  9996
2 68570  53.1573 145.5755 0001296 123.5083 236.6064 15.80948521  3793
MERIDIAN-M 21L          
1 68571U 26071A   26115.37654476 -.00000067  00000+0  00000+0 0  9992
2 68571  62.7870 235.8371 7209010 285.0296  11.0051  2.00619164   455
KUIPER-00131            
1 68573U 26072A   26117.83336806 -.01945896  00000+0 -10123+0 0  9999
2 68573  51.8802  61.0351 0006625 181.8542 216.5931 15.19016989  4559
KUIPER-00189            
1 68574U 26072B   26117.83336806 -.00883414  00000+0 -65243-1 0  9991
2 68574  51.8900  62.1889 0001131 102.0601  66.9137 15.05641446  4131
KUIPER-00192            
1 68575U 26072C   26114.97169749 -.00331245  00000+0 -96996-2 0  9994
2 68575  51.8755  74.2667 0003905 196.8404 163.2453 15.36015476  3190
KUIPER-00193            
1 68576U 26072D   26114.51457956  .00020308  00000+0  54724-3 0  9992
2 68576  51.8751  76.4484 0003632 148.5584 211.5621 15.37798746  3124
KUIPER-00194            
1 68577U 26072E   26117.43389333  .00029492  00000+0  78028-3 0  9996
2 68577  51.8776  62.2638 0002972 153.3315 206.7826 15.38145266  3574
KUIPER-00229            
1 68578U 26072F   26117.83336806  .00016794  00000+0  73997-3 0  9999
2 68578  51.8794  61.0786 0007901 199.6089 231.7128 15.21900509  4670
KUIPER-00230            
1 68579U 26072G   26117.49233487  .00036265  00000+0  93895-3 0  9997
2 68579  51.8774  61.9046 0001326  86.5355 273.5784 15.38708926  3580
KUIPER-00231            
1 68580U 26072H   26117.43421447  .00032986  00000+0  86649-3 0  9993
2 68580  51.8761  62.2687 0002522 158.9454 201.1637 15.38309624  3571
KUIPER-00234            
1 68581U 26072J   26117.49337983  .00026930  00000+0  70004-3 0  9991
2 68581  51.8766  61.9162 0002551 147.9245 212.1897 15.38737827  3580
KUIPER-00236            
1 68582U 26072K   26117.49493381  .00026408  00000+0  69067-3 0  9994
2 68582  51.8771  61.9247 0002502 143.9149 216.2007 15.38561391  3585
KUIPER-00244            
1 68583U 26072L   26117.43574852  .00033019  00000+0  87107-3 0  9993
2 68583  51.8769  62.2776 0003651 172.7718 187.3323 15.38174378  3575
KUIPER-00253            
1 68584U 26072M   26117.44261792  .00028438  00000+0  76437-3 0  9994
2 68584  51.8729  62.3207 0005104 178.4771 181.6233 15.37669748  3575
