[{"OBJECT_NAME":"STARLINK-37283","OBJECT_ID":"2026-070AC","EPOCH":"2026-04-27T06:20:10.821696","MEAN_MOTION":15.80958644,"ECCENTRICITY":3.92e-5,"INCLINATION":53.1573,"RA_OF_ASC_NODE":141.1408,"ARG_OF_PERICENTER":55.0104,"MEAN_ANOMALY":305.0955,"EPHEMERIS_TYPE":0,"CLASSIFICATION_TYPE":"U","NORAD_CAT_ID":68568,"ELEMENT_SET_NO":999,"REV_AT_EPOCH":393,"BSTAR":-0.00081242,"MEAN_MOTION_DOT":-0.00158747,"MEAN_MOTION_DDOT":0},{"OBJECT_NAME":"STARLINK-37256","OBJECT_ID":"2026-070AD","EPOCH":"2026-04-27T13:57:31.806432","MEAN_MOTION":15.80965652,"ECCENTRICITY":0.0001025,"INCLINATION":53.1575,"RA_OF_ASC_NODE":139.5646,"ARG_OF_PERICENTER":111.0591,"MEAN_ANOMALY":249.0542,"EPHEMERIS_TYPE":0,"CLASSIFICATION_TYPE":"U","NORAD_CAT_ID":68569,"ELEMENT_SET_NO":999,"REV_AT_EPOCH":398,"BSTAR":0.0011933,"MEAN_MOTION_DOT":0.00242597,"MEAN_MOTION_DDOT":0},{"OBJECT_NAME":"STARLINK-37228","OBJECT_ID":"2026-070AE","EPOCH":"2026-04-26T09:05:41.123616","MEAN_MOTION":15.80948521,"ECCENTRICITY":0.0001296,"INCLINATION":53.1573,"RA_OF_ASC_NODE":145.5755,"ARG_OF_PERICENTER":123.5083,"MEAN_ANOMALY":236.6064,"EPHEMERIS_TYPE":0,"CLASSIFICATION_TYPE":"U","NORAD_CAT_ID":68570,"ELEMENT_SET_NO":999,"REV_AT_EPOCH":379,"BSTAR":0.0010113,"MEAN_MOTION_DOT":0.00204395,"MEAN_MOTION_DDOT":0},{"OBJECT_NAME":"MERIDIAN-M 21L","OBJECT_ID":"2026-071A","EPOCH":"2026-04-25T09:02:13.467264","MEAN_MOTION":2.00619164,"ECCENTRICITY":0.72090108,"INCLINATION":62.787,"RA_OF_ASC_NODE":235.8371,"ARG_OF_PERICENTER":285.0296,"MEAN_ANOMALY":11.0051,"EPHEMERIS_TYPE":0,"CLASSIFICATION_TYPE":"U","NORAD_CAT_ID":68571,"ELEMENT_SET_NO":999,"REV_AT_EPOCH":45,"BSTAR":0,"MEAN_MOTION_DOT":-6.7e-7,"MEAN_MOTION_DDOT":0},{"OBJECT_NAME":"KUIPER-00131","OBJECT_ID":"2026-072A","EPOCH":"2026-04-27T20:00:03.000384","MEAN_MOTION":15.19016989,"ECCENTRICITY":0.0006625,"INCLINATION":51.8802,"RA_OF_ASC_NODE":61.0351,"ARG_OF_PERICENTER":181.8542,"MEAN_ANOMALY":216.5931,"EPHEMERIS_TYPE":0,"CLASSIFICATION_TYPE":"U","NORAD_CAT_ID":68573,"ELEMENT_SET_NO":999,"REV_AT_EPOCH":455,"BSTAR":-0.10123,"MEAN_MOTION_DOT":-0.01945896,"MEAN_MOTION_DDOT":0},{"OBJECT_NAME":"KUIPER-00189","OBJECT_ID":"2026-072B","EPOCH":"2026-04-27T20:00:03.000384","MEAN_MOTION":15.05641446,"ECCENTRICITY":0.0001131,"INCLINATION":51.89,"RA_OF_ASC_NODE":62.1889,"ARG_OF_PERICENTER":102.0601,"MEAN_ANOMALY":66.9137,"EPHEMERIS_TYPE":0,"CLASSIFICATION_TYPE":"U","NORAD_CAT_ID":68574,"ELEMENT_SET_NO":999,"REV_AT_EPOCH":413,"BSTAR":-0.065243,"MEAN_MOTION_DOT":-0.00883414,"MEAN_MOTION_DDOT":0},{"OBJECT_NAME":"KUIPER-00192","OBJECT_ID":"2026-072C","EPOCH":"2026-04-24T23:19:14.663136","MEAN_MOTION":15.36015476,"ECCENTRICITY":0.0003905,"INCLINATION":51.8755,"RA_OF_ASC_NODE":74.2667,"ARG_OF_PERICENTER":196.8404,"MEAN_ANOMALY":163.2453,"EPHEMERIS_TYPE":0,"CLASSIFICATION_TYPE":"U","NORAD_CAT_ID":68575,"ELEMENT_SET_NO":999,"REV_AT_EPOCH":319,"BSTAR":-0.0096996,"MEAN_MOTION_DOT":-0.00331245,"MEAN_MOTION_DDOT":0},{"OBJECT_NAME":"KUIPER-00193","OBJECT_ID":"2026-072D","EPOCH":"2026-04-24T12:20:59.673984","MEAN_MOTION":15.37798746,"ECCENTRICITY":0.00036323,"INCLINATION":51.8751,"RA_OF_ASC_NODE":76.4484,"ARG_OF_PERICENTER":148.5584,"MEAN_ANOMALY":211.5621,"EPHEMERIS_TYPE":0,"CLASSIFICATION_TYPE":"U","NORAD_CAT_ID":68576,"ELEMENT_SET_NO":999,"REV_AT_EPOCH":312,"BSTAR":0.00054723588,"MEAN_MOTION_DOT":0.00020308,"MEAN_MOTION_DDOT":0},{"OBJECT_NAME":"KUIPER-00194","OBJECT_ID":"2026-072E","EPOCH":"2026-04-27T10:24:48.383712","MEAN_MOTION":15.38145266,"ECCENTRICITY":0.0002972,"INCLINATION":51.8776,"RA_OF_ASC_NODE":62.2638,"ARG_OF_PERICENTER":153.3315,"MEAN_ANOMALY":206.7826,"EPHEMERIS_TYPE":0,"CLASSIFICATION_TYPE":"U","NORAD_CAT_ID":68577,"ELEMENT_SET_NO":999,"REV_AT_EPOCH":357,"BSTAR":0.00078028,"MEAN_MOTION_DOT":0.00029492,"MEAN_MOTION_DDOT":0},{"OBJECT_NAME":"KUIPER-00229","OBJECT_ID":"2026-072F","EPOCH":"2026-04-27T20:00:03.000384","MEAN_MOTION":15.21900509,"ECCENTRICITY":0.0007901,"INCLINATION":51.8794,"RA_OF_ASC_NODE":61.0786,"ARG_OF_PERICENTER":199.6089,"MEAN_ANOMALY":231.7128,"EPHEMERIS_TYPE":0,"CLASSIFICATION_TYPE":"U","NORAD_CAT_ID":68578,"ELEMENT_SET_NO":999,"REV_AT_EPOCH":467,"BSTAR":0.00073997,"MEAN_MOTION_DOT":0.00016794,"MEAN_MOTION_DDOT":0},{"OBJECT_NAME":"KUIPER-00230","OBJECT_ID":"2026-072G","EPOCH":"2026-04-27T11:48:57.732768","MEAN_MOTION":15.38708926,"ECCENTRICITY":0.0001326,"INCLINATION":51.8774,"RA_OF_ASC_NODE":61.9046,"ARG_OF_PERICENTER":86.5355,"MEAN_ANOMALY":273.5784,"EPHEMERIS_TYPE":0,"CLASSIFICATION_TYPE":"U","NORAD_CAT_ID":68579,"ELEMENT_SET_NO":999,"REV_AT_EPOCH":358,"BSTAR":0.00093895,"MEAN_MOTION_DOT":0.00036265,"MEAN_MOTION_DDOT":0},{"OBJECT_NAME":"KUIPER-00231","OBJECT_ID":"2026-072H","EPOCH":"2026-04-27T10:25:16.130208","MEAN_MOTION":15.38309624,"ECCENTRICITY":0.0002522,"INCLINATION":51.8761,"RA_OF_ASC_NODE":62.2687,"ARG_OF_PERICENTER":158.9454,"MEAN_ANOMALY":201.1637,"EPHEMERIS_TYPE":0,"CLASSIFICATION_TYPE":"U","NORAD_CAT_ID":68580,"ELEMENT_SET_NO":999,"REV_AT_EPOCH":357,"BSTAR":0.00086649,"MEAN_MOTION_DOT":0.00032986,"MEAN_MOTION_DDOT":0},{"OBJECT_NAME":"KUIPER-00234","OBJECT_ID":"2026-072J","EPOCH":"2026-04-27T11:50:28.017312","MEAN_MOTION":15.38737827,"ECCENTRICITY":0.0002551,"INCLINATION":51.8766,"RA_OF_ASC_NODE":61.9162,"ARG_OF_PERICENTER":147.9245,"MEAN_ANOMALY":212.1897,"EPHEMERIS_TYPE":0,"CLASSIFICATION_TYPE":"U","NORAD_CAT_ID":68581,"ELEMENT_SET_NO":999,"REV_AT_EPOCH":358,"BSTAR":0.00070004,"MEAN_MOTION_DOT":0.0002693,"MEAN_MOTION_DDOT":0},{"OBJECT_NAME":"KUIPER-00236","OBJECT_ID":"2026-072K","EPOCH":"2026-04-27T11:52:42.281184","MEAN_MOTION":15.38561391,"ECCENTRICITY":0.0002502,"INCLINATION":51.8771,"RA_OF_ASC_NODE":61.9247,"ARG_OF_PERICENTER":143.9149,"MEAN_ANOMALY":216.2007,"EPHEMERIS_TYPE":0,"CLASSIFICATION_TYPE":"U","NORAD_CAT_ID":68582,"ELEMENT_SET_NO":999,"REV_AT_EPOCH":358,"BSTAR":0.00069067,"MEAN_MOTION_DOT":0.00026408,"MEAN_MOTION_DDOT":0},{"OBJECT_NAME":"KUIPER-00244","OBJECT_ID":"2026-072L","EPOCH":"2026-04-27T10:27:28.672128","MEAN_MOTION":15.38174378,"ECCENTRICITY":0.0003651,"INCLINATION":51.8769,"RA_OF_ASC_NODE":62.2776,"ARG_OF_PERICENTER":172.7718,"MEAN_ANOMALY":187.3323,"EPHEMERIS_TYPE":0,"CLASSIFICATION_TYPE":"U","NORAD_CAT_ID":68583,"ELEMENT_SET_NO":999,"REV_AT_EPOCH":357,"BSTAR":0.00087107,"MEAN_MOTION_DOT":0.00033019,"MEAN_MOTION_DDOT":0},{"OBJECT_NAME":"KUIPER-00253","OBJECT_ID":"2026-072M","EPOCH":"2026-04-27T10:37:22.188288","MEAN_MOTION":15.37669748,"ECCENTRICITY":0.0005104,"INCLINATION":51.8729,"RA_OF_ASC_NODE":62.3207,"ARG_OF_PERICENTER":178.4771,"MEAN_ANOMALY":181.6233,"EPHEMERIS_TYPE":0,"CLASSIFICATION_TYPE":"U","NORAD_CAT_ID":68584,"ELEMENT_SET_NO":999,"REV_AT_EPOCH":357,"BSTAR":0.00076437,"MEAN_MOTION_DOT":0.00028438,"MEAN_MOTION_DDOT":0}]
